"assessid","stockid","stocklong","country","region","area","lat_dd","long_dd","area_sqkm","common_name","sci_name","yr1","yr2","nyr","collapse","nyrs.collapsed","yr.1st.collapse"
"NEFSC-ATHAL5YZ-1800-2007-COL","ATHAL5YZ","Atlantic Halibut NAFO-5YZ","USA","US East Coast","Gulf of Maine / Georges Bank",42.1272566106241,-68.6056023906249,124192.847897247,"Atlantic Halibut","Hippoglossus hippoglossus",1800,2007,208,"yes",112,1896
"SEFSC-RSNAPGM-1872-2011-HIVELY","RSNAPGM","Red snapper Gulf of Mexico","USA","US Southeast and Gulf","Gulf of Mexico",28.0830999848324,-88.3813912456703,340141.855909181,"Red snapper","Lutjanus campechanus",1872,2011,140,"yes",30,1979
"NIWA-OROUGHYNZMEC-1882-2014-FU","OROUGHYNZMEC","Orange roughy New Zealand Mid East Coast","New Zealand","New Zealand","New Zealand Mid East Coast",-40.8208826432578,-177.173882694273,289703.19227208,"Orange roughy","Hoplostethus atlanticus",1882,2014,133,"no",0,Inf
"NWFSC-ESOLEPCOAST-1876-2007-BRANCH","ESOLEPCOAST","English sole Pacific Coast","USA","US West Coast","Pacific Coast",35.5832142875811,-121.653433986664,191133.792405355,"English sole","Parophrys vetulus",1876,2007,132,"no",0,Inf
"SEFSC-SPANMACKGM-1886-2011-HIVELY","SPANMACKGM","Spanish mackerel Gulf of Mexico","USA","US Southeast and Gulf","Gulf of Mexico",28.0830999848324,-88.3813912456703,340141.855909181,"Spanish mackerel","Scomberomorus maculatus",1886,2011,126,"no",0,Inf
"NWFSC-CHILISPCOAST-1892-2007-BRANCH","CHILISPCOAST","Chilipepper Southern Pacific Coast","USA","US West Coast","Southern Pacific Coast",40.2726421820869,-124.567920064299,437002.012493155,"Chilipepper","Sebastes goodei",1892,2007,116,"no",0,Inf
"PFMC-COWCODSCAL-1900-2015-HIVELY","COWCODSCAL","Cowcod Southern California","USA","US West Coast","Southern California",33.0720325333246,-119.456713828192,91849.8244958058,"Cowcod","Sebastes levis",1900,2015,116,"no",0,Inf
"NIWA-NZSNAPNZ1BOP-HAGU-1899-2013-FU","NZSNAPNZ1BOP-HAGU","New Zealand snapper New Zealand SNA 1 Bay of Plenty and Hauraki Gulf","New Zealand","New Zealand","New Zealand SNA 1 Bay of Plenty and Hauraki Gulf",-36.8565354009291,176.628862157638,44445.0348932879,"New Zealand snapper","Chrysophrys auratus",1899,2013,115,"no",0,Inf
"NIWA-NZSNAPNZ1ENLD-1899-2013-FU","NZSNAPNZ1ENLD","New Zealand snapper New Zealand SNA 1 east Northland","New Zealand","New Zealand","New Zealand SNA 1 east Northland",-33.8015718300499,175.381981618156,197144.682441873,"New Zealand snapper","Chrysophrys auratus",1899,2013,115,"no",0,Inf
"NWFSC-SABLEFPCOAST-1900-2011-STACHURA","SABLEFPCOAST","Sablefish Pacific Coast","USA","US West Coast","Pacific Coast",33.0720325333246,-119.456713828192,91849.8244958058,"Sablefish","Anoplopoma fimbria",1900,2011,112,"no",0,Inf
"SEFSC-KMACKSATLC-1901-2012-HIVELY","KMACKSATLC","King mackerel Southern Atlantic Coast","USA","US Southeast and Gulf","Southern Atlantic coast",31.7713994916115,-77.9910926128048,191530.27213065,"King Mackerel","Scomberomorus cavalla",1901,2012,112,"no",0,Inf
"NWFSC-SNROCKPCOAST-1905-2009-STANTON","SNROCKPCOAST","Splitnose Rockfish Pacific Coast","USA","US West Coast","Pacific Coast",35.5832142875811,-121.653433986664,191133.792405355,"Splitnose Rockfish","Sebastes diploproa",1905,2009,105,"no",0,Inf
"NWFSC-SSTHORNHPCOAST-1901-2005-STANTON","SSTHORNHPCOAST","Shortspine thornyhead Pacific Coast","USA","US West Coast","Pacific Coast",35.5832142875811,-121.653433986664,191133.792405355,"Shortspine thornyhead","Sebastolobus alascanus",1901,2005,105,"no",0,Inf
"NIWA-OROUGHYESCR-1910-2014-FU","OROUGHYESCR","Orange roughy East and South Chatham Rise","New Zealand","New Zealand","East and South Chatham Rise",-44.1478902581409,-175.860144573897,390293.845464828,"Orange roughy","Hoplostethus atlanticus",1911,2014,104,"no",0,Inf
"NIWA-OROUGHYNWCR-1910-2014-FU","OROUGHYNWCR","Orange Roughy Northwest Chatham Rise","New Zealand","New Zealand","Northwest Chatham Rise",-42.9873341779824,177.005160115513,111259.779676657,"Orange roughy","Hoplostethus atlanticus",1911,2014,104,"no",0,Inf
"NIWA-OROUGHYNZ7A-1910-2014-FU","OROUGHYNZ7A","Orange roughy New Zealand Challenger Plateau","New Zealand","New Zealand","New Zealand Challenger Plateau",-40.3701562357199,169.968047947884,190589.338099266,"Orange roughy","Hoplostethus atlanticus",1911,2014,104,"no",0,Inf
"SWFSC-DSOLEPCOAST-1910-2011-STACHURA","DSOLEPCOAST","Dover sole Pacific Coast","USA","US West Coast","Pacific Coast",35.5832142875811,-121.653433986664,191133.792405355,"Dover sole","Microstomus pacificus",1910,2011,102,"no",0,Inf
"MARAM-CHAKESA-1917-2015-Rademeyer","CHAKESA","Shallow-water cape hake South Africa","South Africa","South Africa","South Africa",-34.6554583175687,19.2685633477411,609628.82080682,"Shallow-water cape hake","Merluccius capensis",1917,2015,99,"no",0,Inf
"MARAM-DEEPCHAKESA-1917-2015-Rademeyer","DEEPCHAKESA","Deep-water cape hake South Africa","South Africa","South Africa","South Africa",-34.6554583175687,19.2685633477411,609628.82080682,"Deep-water cape hake","Merluccius paradoxus",1917,2015,99,"no",0,Inf
"NWFSC-CROCKPCOAST-1916-2011-STACHURA","CROCKPCOAST","Canary rockfish Pacific Coast","USA","US West Coast","Pacific Coast",35.5832142875811,-121.653433986664,191133.792405355,"Canary rockfish","Sebastes pinniger",1916,2011,96,"no",0,Inf
"NWFSC-SPSDOGPCOAST-1916-2011-STACHURA","SPSDOGPCOAST","Spotted spiny dogfish Pacific Coast","USA","US West Coast","Pacific Coast",35.5832142875811,-121.653433986664,191133.792405355,"Spotted spiny dogfish","Squalus suckleyi",1916,2011,96,"no",0,Inf
"NWFSC-WROCKPCOAST-1916-2011-STACHURA","WROCKPCOAST","Widow rockfish Pacific Coast","USA","US West Coast","Pacific Coast",35.5832142875811,-121.653433986664,191133.792405355,"Widow rockfish","Sebastes entomelas",1916,2011,96,"no",0,Inf
"NWFSC-YEYEROCKPCOAST-1916-2011-STACHURA","YEYEROCKPCOAST","Yelloweye rockfish Pacific Coast","USA","US West Coast","Pacific Coast",35.5832142875811,-121.653433986664,191133.792405355,"Yelloweye rockfish","Sebastes ruberrimus",1916,2011,96,"no",0,Inf
"CSIRO-MORWONGSE-1913-2007-FULTON","MORWONGSE","Jackass morwong Southeast Australia","Australia","Australia","Southeast Australia",-36.680401419716,137.420683363327,585584.905779735,"Jackass morwong","Nemadactylus macropterus",1913,2007,95,"no",0,Inf
"NEFSC-ACADREDGOMGB-1913-2007-MILLER","ACADREDGOMGB","Acadian redfish Gulf of Maine / Georges Bank","USA","US East Coast","Gulf of Maine / Georges Bank",42.7653306255939,-68.8712117769524,72893.647514937,"Acadian redfish","Sebastes fasciatus",1913,2007,95,"yes",19,1980
"SWFSC-GRSPROCKNCAL-1916-2010-STACHURA","GRSPROCKNCAL","Greenspotted rockfish Pacific Coast North","USA","US West Coast","Pacific Coast",39.1651993998497,-124.731790436169,163996.24774737,"Greenspotted rockfish","Sebastes chlorostictus",1916,2010,95,"no",0,Inf
"SWFSC-GRSPROCKSCAL-1916-2010-STACHURA","GRSPROCKSCAL","Greenspotted rockfish Pacific Coast South","USA","US West Coast","Pacific Coast",33.0720325333246,-119.456713828192,91849.8244958058,"Greenspotted rockfish","Sebastes chlorostictus",1916,2010,95,"no",0,Inf
"CSIRO-TIGERFLATSE-1913-2006-FULTON","TIGERFLATSE","Tiger flathead Southeast Australia","Australia","Australia","Southeast Australia",-39.3130557998632,145.988615264341,256043.237104409,"Tiger flathead","Neoplatycephalus richardsoni",1913,2006,94,"no",0,Inf
"PFMC-GRNSTROCKPCOAST-1916-2009-STANTON","GRNSTROCKPCOAST","Greenstriped rockfish Pacific Coast","USA","US West Coast","Pacific Coast",33.0720325333246,-119.456713828192,91849.8244958058,"Greenstriped rockfish","Sebastes elongatus",1916,2009,94,"no",0,Inf
"NWFSC-BLACKROCKSPCOAST-1915-2007-BRANCH","BLACKROCKSPCOAST","Black rockfish Southern Pacific Coast","USA","US West Coast","Southern Pacific Coast",39.9340748633668,-124.465416663601,415322.589539468,"Black rockfish","Sebastes melanops",1915,2007,93,"no",0,Inf
"NWFSC-LNOSESKAPCOAST-1915-2007-BRANCH","LNOSESKAPCOAST","Longnose skate Pacific Coast","USA","US West Coast","Pacific Coast",33.0720325333246,-119.456713828192,91849.8244958058,"Longnose skate","Raja rhina",1915,2007,93,"no",0,Inf
"NWFSC-ARFLOUNDPCOAST-1916-2007-BRANCH","ARFLOUNDPCOAST","Arrowtooth flounder Pacific Coast","USA","US West Coast","Pacific Coast",40.2726421820869,-124.567920064299,437002.012493155,"Arrowtooth flounder","Reinhardtius stomias",1916,2007,92,"no",0,Inf
"NWFSC-BLACKROCKNPCOAST-1914-2006-BRANCH","BLACKROCKNPCOAST","Black rockfish Northern Pacific Coast","USA","US West Coast","Northern Pacific Coast",46.9310775669955,-125.864175778978,88173.5499373139,"Black rockfish","Sebastes melanops",1915,2006,92,"no",0,Inf
"NWFSC-BLUEROCKCAL-1916-2007-BRANCH","BLUEROCKCAL","Blue rockfish California","USA","US West Coast","California",39.1651993998497,-124.731790436169,163996.24774737,"Blue rockfish","Sebastes mystinus",1916,2007,92,"no",0,Inf
"DFO-PAC-LINGCODSOG-1927-2014-OSGOOD","LINGCODSOG","Lingcod Strait of Georgia","Canada","Canada West Coast","Straight of Georgia",49.820156582162,-124.879086643103,14780.4807901658,"Lingcod","Ophiodon elongatus",1927,2014,88,"yes",19,1980
"NIWA-BKCDLFENI-1923-2009-CORDUE","BKCDLFENI","Black cardinalfish East coast of North Island","New Zealand","New Zealand","East coast of North Island",-42.6689296671429,176.288834071144,951474.758076608,"Black cardinalfish","Epigonus telescopus",1923,2009,87,"no",0,Inf
"NIWA-AUSSALMONNZ-1929-2013-FU","AUSSALMONNZ","Australian salmon New Zealand","New Zealand","New Zealand","New Zealand",-34.3891842427581,175.620441792915,239600.935298105,"Australian salmon","Arripis trutta",1929,2013,85,"no",0,Inf
"NWFSC-DKROCKPCOAST-1928-2011-STACHURA","DKROCKPCOAST","Darkblotched rockfish Pacific Coast","USA","US West Coast","Pacific Coast",35.5832142875811,-121.653433986664,191133.792405355,"Darkblotched rockfish","Sebastes crameri",1928,2011,84,"no",0,Inf
"NZMFishINSHOREWG-NZSNAPNZ7-1931-2014-LANGLEY","NZSNAPNZ7","New Zealand snapper New Zealand SNA 7","New Zealand","New Zealand","New Zealand SNA 7",-41.5512034954411,168.669628975536,334089.318664298,"New Zealand snapper","Chrysophrys auratus",1931,2014,84,"yes",20,1987
"SEFSC-KMACKGM-1929-2012-HIVELY","KMACKGM","King mackerel Gulf of Mexico","USA","US Southeast and Gulf","Gulf of Mexico",28.0830999848324,-88.3813912456703,340141.855909181,"King Mackerel","Scomberomorus cavalla",1929,2012,84,"no",0,Inf
"ICCAT-ALBANATL-1930-2015-PONS","ALBANATL","Albacore tuna North Atlantic","multinational","Atlantic Ocean","Northern Atlantic",48.7275995704969,-22.6044584324185,48163510.6864972,"Albacore tuna","Thunnus alalunga",1930,2011,82,"no",0,Inf
"NWFSC-LINGCODNPCOAST-1928-2009-STACHURA","LINGCODNPCOAST","Lingcod Northern Pacific Coast","USA","US West Coast","Northern Pacific Coast",45.0227270720632,-126.306278943629,247654.500668066,"Lingcod","Ophiodon elongatus",1928,2009,82,"no",0,Inf
"NWFSC-LINGCODSPCOAST-1928-2009-STACHURA","LINGCODSPCOAST","Lingcod Southern Pacific Coast","USA","US West Coast","Southern Pacific Coast",37.1415722924399,-122.979861063252,255841.438787882,"Lingcod","Ophiodon elongatus",1928,2009,82,"no",0,Inf
"PFMC-PSOLEPCOAST-1930-2011-CHING","PSOLEPCOAST","Petrale sole Pacific Coast","USA","US West Coast","Pacific Coast",33.0720325333246,-119.456713828192,91849.8244958058,"Petrale sole","Eopsetta jordani",1930,2011,82,"no",0,Inf
"PFMC-BOCACCSPCOAST-1930-2009-CHING","BOCACCSPCOAST","Bocaccio Southern Pacific Coast","USA","US West Coast","Southern Pacific Coast",37.9804018540134,-123.573458607119,298740.406308336,"Bocaccio","Sebastes paucispinis",1930,2009,80,"no",0,Inf
"SWFSC-CMACKPCOAST-1929-2008-PINSKY","CMACKPCOAST","Pacific chub mackerel Pacific Coast","USA","US West Coast","Pacific Coast",45.0227270720632,-126.306278943629,247654.500668066,"Pacific chub mackerel","Scomber japonicus",1929,2008,80,"yes",5,1965
"DFO-PAC-BOCACCBCW-1935-2012-CHING","BOCACCBCW","Bocaccio British Columbia Waters","Canada","Canada West Coast","British Columbia Waters",51.3851295517415,-128.465271694786,135836.455887546,"Bocaccio","Sebastes paucispinis",1935,2012,78,"yes",20,1993
"NZMFishINSHOREWG-BNSNZ-1935-2011-CORDUE","BNSNZ","Bluenose New Zealand","New Zealand","New Zealand","New Zealand",-43.8819690535194,172.064787635384,2517332.34295159,"Bluenose","Hyperoglyphe antarctica",1935,2011,77,"no",0,Inf
"NIWA-TARAKNZ-1932-2007-CORDUE","TARAKNZ","Tarakihi New Zealand","New Zealand","New Zealand","Sub-Antarctic",-41.5512034954411,168.669628975536,334089.318664298,"Tarakihi","Nemadactylus macropterus",1932,2007,76,"no",0,Inf
"NZMFishINSHOREWG-NZSNAPNZ8-1931-2005-JENSEN","NZSNAPNZ8","New Zealand snapper New Zealand Area 8","New Zealand","New Zealand","New Zealand Area 8 (Auckland and Central West)",-35.3477344315658,171.533783259641,382641.691164707,"New Zealand snapper","Chrysophrys auratus",1931,2005,75,"no",0,Inf
"DFO-PERCHQCI-1939-2013-WATSON","PERCHQCI","Pacific Ocean perch Queen Charlotte Islands","Canada","Canada West Coast","Queen Charlotte Islands",51.7430580545566,-130.217051527728,94728.1669821217,"Pacific Ocean perch","Sebastes alutus",1940,2013,74,"no",0,Inf
"DFO-PERCHWCVANI-1939-2013-WATSON","PERCHWCVANI","Pacific Ocean perch West Coast of Vancouver Island","Canada","Canada West Coast","West Coast of Vancouver Island",49.0161576350977,-129.933625394439,178610.899749574,"Pacific Ocean perch","Sebastes alutus",1940,2013,74,"no",0,Inf
"NWFSC-POPERCHPCOAST-1940-2011-STACHURA","POPERCHPCOAST","Pacific ocean perch Pacific Coast","USA","US West Coast","Pacific Coast",33.0720325333246,-119.456713828192,91849.8244958058,"Pacific ocean perch","Sebastes alutus",1940,2011,72,"no",0,Inf
"NZMFishINSHOREWG-TREVALLYTRE7-1944-2014-LANGLEY","TREVALLYTRE7","Trevally New Zealand Areas TRE 7","New Zealand","New Zealand","New Zealand Areas TRE 7",-37.1023126812281,173.447124155507,68750.9760830739,"Trevally","Pseudocaranx dentex",1944,2014,71,"no",0,Inf
"DFO-PAC-RSOLE5AB-1944-2014-OSGOOD","RSOLE5AB","Rock sole Queen Charlotte Sound","Canada","Canada West Coast","Queen Charlotte Sound",51.239012749019,-132.113569484655,109179.123208211,"Rock sole","Lepidopsetta bilineata",1945,2014,70,"no",0,Inf
"DFO-PAC-RSOLEHSTR-1945-2014-OSGOOD","RSOLEHSTR","Rock sole Hecate Strait","Canada","Canada West Coast","Hecate Strait",53.0910311356626,-133.460542402941,146949.829107123,"Rock sole","Lepidopsetta bilineata",1945,2014,70,"no",0,Inf
"SEFSC-VSNAPSATLC-1945-2012-HIVELY","VSNAPSATLC","Vermilion snapper Southern Atlantic coast","USA","US Southeast and Gulf","Southern Atlantic coast",31.1877602345803,-78.3029264602483,335331.056542966,"Vermilion snapper","Rhomboplites aurorubens",1946,2012,67,"no",0,Inf
"DFO-CROCKWCVANISOGQCI-1945-2009-STANTON","CROCKWCVANISOGQCI","Canary rockfish West Coast of Vancouver Island and Straight of Georgia and Queen Charlotte Islands","Canada","Canada West Coast","West Coast of Vancouver Island and Straight of Georgia and Queen Charlotte Islands",51.3851295517415,-128.465271694786,135836.455887546,"Canary rockfish","Sebastes pinniger",1945,2009,65,"no",0,Inf
"ICCAT-SKJWATL-1950-2014-PONS","SKJWATL","Skipjack tuna Western Atlantic","multinational","Atlantic Ocean","Western Atlantic",-1.72159711380579,-51.290886171501,62575742.6455979,"Skipjack tuna","Katsuwonus pelamis",1950,2014,65,"no",0,Inf
"MARAM-CTRACSA-1949-2013-Furman","CTRACSA","Cape horse mackerel South Africa South coast","South Africa","South Africa","South Africa South coast",-35.997707815232,23.3115315219206,233924.846759294,"Cape horse mackerel","Trachurus capensis",1949,2013,65,"no",0,Inf
"AFSC-TANNERCRABBSAI-1949-2013-HIVELY","TANNERCRABBSAI","Tanner crab Bering Sea and Aleutian Islands","USA","US Alaska","Bering Sea and Aleutian Islands",57.3939056214406,-168.441303581785,289297.925734838,"Tanner crab","Chionoecetes bairdi",1949,2012,64,"yes",5,1949
"CCSBT-SC-SBT-1952-2014-PONS","SBT","Southern bluefin tuna Southern Oceans","multinational","Indian Ocean","Southern Oceans",-37.2177912419797,68.8528164971059,53901675.8105102,"Southern bluefin tuna","Thunnus maccoyii",1952,2014,63,"no",0,Inf
"CSIRO-SWHITSE-1945-2007-FULTON","SWHITSE","School whiting Southeast Australia","Australia","Australia","Southeast Australia",-37.8267786927814,144.001498627495,364307.922002872,"School whiting","Sillago flindersi",1945,2007,63,"no",0,Inf
"ICCAT-ATBTUNAEATL-1950-2015-PONS","ATBTUNAEATL","Bluefin tuna Eastern Atlantic","multinational","Atlantic Ocean","Eastern Atlantic",19.8472858925909,-3.49122597378675,54110640.7699108,"Atlantic bluefin tuna","Thunnus thynnus",1950,2012,63,"no",0,Inf
"ICCAT-SWORDNATL-1950-2015-PONS","SWORDNATL","Swordfish North Atlantic","multinational","Atlantic Ocean","Northern Atlantic",48.7275995704969,-22.6044584324185,48163510.6864972,"Swordfish","Xiphias gladius",1950,2012,63,"no",0,Inf
"IOTC-ALBAIO-1950-2014-PONS","ALBAIO","Albacore tuna Indian Ocean","multinational","Indian Ocean","Indian Ocean",-22.4379829118111,82.0285510874439,60407235.0420866,"albacore tuna","Thunnus alalunga",1950,2012,63,"no",0,Inf
"IOTC-SWORDIO-1950-2014-PONS","SWORDIO","Swordfish Indian Ocean","multinational","Indian Ocean","Indian Ocean",-14.9001341925746,76.2470365770596,48951560.0265696,"swordfish","Xiphias gladius",1950,2012,63,"no",0,Inf
"SEFSC-SPANMACKSATLC-1950-2012-HIVELY","SPANMACKSATLC","Spanish mackerel Southern Atlantic Coast","USA","US Southeast and Gulf","Southern Atlantic coast",31.7713994916115,-77.9910926128048,191530.27213065,"Spanish mackerel","Scomberomorus maculatus",1950,2012,63,"no",0,Inf
"IATTC-SWORDEPAC-1951-2012-PONS","SWORDEPAC","Swordfish Eastern Pacific","multinational","Pacific Ocean","Eastern Pacific",-8.68294777966568,-116.63315180093,37218632.6954846,"swordfish","Xiphias gladius",1951,2012,62,"no",0,Inf
"ICCAT-YFINATL-1950-2011-CHING","YFINATL","Yellowfin tuna Atlantic","multinational","Atlantic Ocean","Atlantic Ocean",7.39447239992646,-22.4521994193636,94627091.8806495,"Yellowfin tuna","Thunnus albacares",1950,2011,62,"no",0,Inf
"IOTC-BLKMARLINIO-1950-2014-PONS","BLKMARLINIO","Black marlin Indian Ocean","multinational","Indian Ocean","Indian Ocean",-14.9001341925746,76.2470365770596,48951560.0265696,"Black marlin","Istiompax indica",1950,2011,62,"no",0,Inf
"IOTC-BMARLINIO-1950-2014-PONS","BMARLINIO","Indo-Pacific blue marlin Indian Ocean","multinational","Indian Ocean","Indian Ocean",-14.9001341925746,76.2470365770596,48951560.0265696,"Indo-Pacific blue marlin","Makaira mazara",1950,2011,62,"no",0,Inf
"IOTC-SKJCIO-1950-2014-PONS","SKJCIO","Skipjack tuna Indian Ocean","multinational","Indian Ocean","Indian Ocean",-22.4379829118111,82.0285510874439,60407235.0420866,"skipjack tuna","Katsuwonus pelamis",1950,2011,62,"no",0,Inf
"IOTC-STMARLINIO-1950-2014-PONS","STMARLINIO","Striped marlin Indian Ocean","multinational","Indian Ocean","Indian Ocean",-14.9001341925746,76.2470365770596,48951560.0265696,"Striped marlin","Kajikia audax",1950,2011,62,"no",0,Inf
"IOTC-YFINEIO-1950-2014-PONS","YFINEIO","Yellowfin tuna Indian Ocean","multinational","Indian Ocean","Indian Ocean",-14.9001341925746,76.2470365770596,48951560.0265696,"Yellowfin tuna","Thunnus albacares",1950,2011,62,"no",0,Inf
"ISC-SWORDNPAC-1951-2012-PONS","SWORDNPAC","Swordfish North Pacific","Multinational","Pacific Ocean","North Pacific Ocean",22.597412928072,148.457147457689,49432129.3441759,"swordfish","Xiphias gladius",1951,2012,62,"no",0,Inf
"NWFSC-BGROCKPCOAST-1950-2011-STACHURA","BGROCKPCOAST","Blackgill rockfish  Pacific Coast","USA","US West Coast","Pacific Coast",35.5832142875811,-121.653433986664,191133.792405355,"Blackgill rockfish","Sebastes melanostomus",1950,2011,62,"no",0,Inf
"SEFSC-BHEADSHARATL-1950-2011-HIVELY","BHEADSHARATL","Bonnethead shark Atlantic","USA","US Southeast and Gulf","Atlantic",27.5050715846691,-83.1529167021622,102754.82369363,"Bonnethead shark","Sphyrna tiburo",1950,2011,62,"no",0,Inf
"ICCAT-BIGEYEATL-1950-2010-CHING","BIGEYEATL","Bigeye tuna Atlantic","multinational","Atlantic Ocean","Atlantic Ocean",7.39447239992646,-22.4521994193636,94627091.8806495,"Bigeye tuna","Thunnus obesus",1950,2010,61,"no",0,Inf
"ISC-PACBTUNA-1952-2012-PONS","PACBTUNA","Pacific bluefin tuna Pacific Ocean","Multinational","Pacific Ocean","Pacific Ocean",-5.15857173084969,-132.921796983369,80815018.1007028,"pacific bluefin tuna","Thunnus orientalis",1952,2012,61,"yes",10,1974
"SEFSC-GRAMBERSATLC-1946-2006-JENSEN","GRAMBERSATLC","Greater amberjack Southern Atlantic coast","USA","US Southeast and Gulf","Southern Atlantic coast",31.1877602345803,-78.3029264602483,335331.056542966,"Greater amberjack","Seriola dumerili",1946,2006,61,"no",0,Inf
"IOTC-BIGEYEIO-1950-2014-PONS","BIGEYEIO","Bigeye tuna Indian Ocean","multinational","Indian Ocean","Indian Ocean",-10.9830938965139,74.8709943926688,42557541.1446782,"Bigeye tuna","Thunnus obesus",1952,2011,60,"no",0,Inf
"SPC-BIGEYECWPAC-1952-2012-PONS","BIGEYECWPAC","Bigeye tuna Central Western Pacific","multinational","Pacific Ocean","Central Western Pacific Ocean",0.749628730827052,-143.673828852368,81449273.2351924,"bigeye tuna","Thunnus obesus",1952,2011,60,"no",0,Inf
"SPC-STMARLINSWPO-1952-2011-CHING","STMARLINSWPO","Striped marlin Southwestern Pacific Ocean","multinational","Pacific Ocean","Western Pacific Ocean",-21.5867242431304,-156.168466325954,32295252.1795922,"Striped marlin","Kajikia audax",1952,2011,60,"no",0,Inf
"SPC-YFINCWPAC-1952-2012-PONS","YFINCWPAC","Yellowfin tuna Central Western Pacific","multinational","Pacific Ocean","Central Western Pacific Ocean",7.04059227203888,150.836135090351,53378563.0071583,"Yellowfin tuna","Thunnus albacares",1952,2011,60,"no",0,Inf
"DFO-PAC-PCOD5AB-1945-2014-OSGOOD","PCOD5AB","Pacific cod Queen Charlotte Sound","Canada","Canada West Coast","Queen Charlotte Sound",51.239012749019,-132.113569484655,109179.123208211,"Pacific cod","Gadus macrocephalus",1956,2014,59,"yes",6,1997
"DFO-PAC-PCODHS-1944-2014-OSGOOD","PCODHS","Pacific cod Hecate Strait","Canada","Canada West Coast","Hecate Strait",53.0910311356626,-133.460542402941,146949.829107123,"Pacific cod","Gadus macrocephalus",1956,2014,59,"no",0,Inf
"NIWA-SMOOTHOREOCR-1955-2013-FU","SMOOTHOREOCR","Smooth oreo Chatham Rise","New Zealand","New Zealand","Chatham Rise",-44.0904225697957,-175.697578653064,424644.549722865,"Smooth oreo","Pseudocyttus maculatus",1955,2013,59,"no",0,Inf
"ICCAT-ALBASATL-1950-2015-PONS","ALBASATL","Albacore tuna South Atlantic","multinational","Atlantic Ocean","South Atlantic",-42.9091679378942,-22.2653897603318,46463577.2645991,"albacore tuna","Thunnus alalunga",1956,2012,57,"no",0,Inf
"ICCAT-SKJEATL-1950-2010-CHING","SKJEATL","Skipjack tuna Eastern Atlantic","multinational","Atlantic Ocean","Eastern Atlantic",13.9216958825234,-1.80264827281735,32051347.8882674,"Skipjack tuna","Katsuwonus pelamis",1950,2006,57,"no",0,Inf
"ICCAT-SWORDSATL-1950-2015-PONS","SWORDSATL","Swordfish South Atlantic","multinational","Atlantic Ocean","South Atlantic",-42.9091679378942,-22.2653897603318,46463577.2645991,"Swordfish","Xiphias gladius",1956,2012,57,"no",0,Inf
"AFSC-GHALBSAI-1960-2015-HIVELY","GHALBSAI","Greenland turbot Bering Sea and Aleutian Islands","USA","US Alaska","Bering Sea and Aleutian Islands",57.8980221696891,-171.49918806879,490087.604242103,"Greenland halibut","Reinhardtius hippoglossoides",1960,2015,56,"no",0,Inf
"SEFSC-BNOSESHARATL-1950-2005-FAUCONNET","BNOSESHARATL","Blacknose shark Atlantic","USA","US Southeast and Gulf","Atlantic",27.6548913686046,-84.1184624692604,267493.646649634,"Blacknose shark","Carcharhinus acronotus",1950,2005,56,"no",0,Inf
"SEFSC-RSNAPSATLC-1954-2010-HIVELY","RSNAPSATLC","Red snapper Southern Atlantic coast","USA","US Southeast and Gulf","Southern Atlantic coast",31.1877602345803,-78.3029264602483,335331.056542966,"Red snapper","Lutjanus campechanus",1955,2010,56,"yes",26,1985
"SEFSC-SNOSESHARATL-1950-2005-FAUCONNET","SNOSESHARATL","Atlantic sharpnose shark Atlantic","USA","Atlantic Ocean","Atlantic",27.9534366219539,-88.1732878818093,451937.880823843,"Atlantic sharpnose shark","Rhizoprionodon terraenovae",1950,2005,56,"no",0,Inf
"SWFSC-SBELLYROCKPCOAST-1950-2005-BRANCH","SBELLYROCKPCOAST","Shortbelly rockfish Pacific Coast","USA","US West Coast","Pacific Coast",35.5832142875811,-121.653433986664,191133.792405355,"Shortbelly rockfish","Sebastes jordani",1950,2005,56,"no",0,Inf
"ICCAT-BMARLINATL-1956-2010-CHING","BMARLINATL","Blue marlin Atlantic","multinational","Atlantic Ocean","Atlantic Ocean",7.39447239992646,-22.4521994193636,94627091.8806495,"Blue marlin","Makaira nigricans",1956,2010,55,"no",0,Inf
"ICCAT-WMARLINATL-1956-2011-CHING","WMARLINATL","White marlin Atlantic","multinational","Atlantic Ocean","Atlantic Ocean",7.39447239992646,-22.4521994193636,94627091.8806495,"white marlin","Tetrapturus albidus",1956,2010,55,"no",0,Inf
"NAFO-SC-REDFISHSPP3LN-1959-2013-WATSON","REDFISHSPP3LN","Redfish species NAFO 3LN","multinational","Canada East Coast","N and SW Grand Banks",44.7015632447916,-49.2957057439628,476973.544548099,"Redfish species","Sebastes spp",1959,2013,55,"yes",5,1994
"NZMFishMIDDEPTHSWG-GEMFISHNZ-1952-2007-JENSEN","GEMFISHNZ","common gemfish New Zealand","New Zealand","New Zealand","New Zealand",-35.7821926920325,174.566475860755,981971.234709097,"common gemfish","Rexea solandri",1952,2006,55,"no",0,Inf
"SPC-BIGEYEWPO-1952-2006-JENSEN","BIGEYEWPO","Bigeye tuna Western Pacific Ocean","multinational","Pacific Ocean","Western Pacific Ocean",-2.21016495085646,-140.633873858923,87038360.9465861,"Bigeye tuna","Thunnus obesus",1952,2006,55,"no",0,Inf
"ICCAT-SAILEATL-1956-2010-CHING","SAILEATL","Sailfish Eastern Atlantic","multinational","Atlantic Ocean","Eastern Atlantic",19.8472858925909,-3.49122597378675,54110640.7699108,"Sailfish","Istiophorus albicans",1957,2008,52,"no",0,Inf
"ICCAT-SAILWATL-1956-2010-CHING","SAILWATL","Sailfish Western Atlantic","multinational","Atlantic Ocean","Western Atlantic",-11.7471978961464,-51.920626370172,43513242.43717,"Sailfish","Istiophorus albicans",1957,2008,52,"no",0,Inf
"AFSC-SABLEFEBSAIGA-1958-2010-STACHURA","SABLEFEBSAIGA","Sablefish Eastern Bering Sea / Aleutian Islands / Gulf of Alaska","USA","US Alaska","Eastern Bering Sea / Aleutian Islands / Gulf of Alaska",57.2933831608997,-150.983151582443,319917.206758087,"Sablefish","Anoplopoma fimbria",1960,2010,51,"no",0,Inf
"AFSC-WPOLLEBS-1963-2015-HIVELY","WPOLLEBS","Walleye pollock Eastern Bering Sea","USA","US Alaska","Eastern Bering Sea",58.3644406184641,-169.598753979484,690511.17437748,"Walleye pollock","Theragra chalcogramma",1964,2014,51,"no",0,Inf
"DFO-SG-WITFLOUN4RST-1960-2011-OSGOOD","WITFLOUN4RST","Witch flounder Gulf of St. Lawrence","Canada","Canada East Coast","Gulf of St. Lawrence",48.6930703861699,-62.2570219072791,235063.495939675,"Witch flounder","Glyptocephalus cynoglossus",1961,2011,51,"yes",4,1993
"NAFO-SC-YELL3LNO-1960-2015-WATSON","YELL3LNO","Yellowtail Flounder NAFO 3LNO","multinational","Canada East Coast","Grand Banks",44.4673144654127,-50.0282133046627,620326.403097525,"Yellowtail Flounder","Limanda ferruginea",1965,2015,51,"no",0,Inf
"NIWA-PAUAPAU7-1965-2015-FU","PAUAPAU7","New Zealand abalone species New Zealand Area PAU 7","New Zealand","New Zealand","New Zealand Area PAU 7 (Marlborough)",-41.000151839917,173.559226923098,10924.8048377273,"New Zealand abalone species","Haliotis iris",1965,2015,51,"no",0,Inf
"PFMC-PHAKEPCOAST-1966-2016-WATSON","PHAKEPCOAST","Pacific hake Pacific Coast","USA","US West Coast","Pacific Coast",33.0720325333246,-119.456713828192,91849.8244958058,"Pacific hake","Merluccius productus",1966,2016,51,"no",0,Inf
"SPC-ALBASPAC-1960-2010-PONS","ALBASPAC","Albacore tuna South Pacific Ocean","multinational","Pacific Ocean","South Pacific Ocean",-22.1190056554868,-127.119698363939,63736984.4518902,"Albacore tuna","Thunnus alalunga",1960,2010,51,"no",0,Inf
"AFSC-ARFLOUNDGA-1958-2010-STACHURA","ARFLOUNDGA","Arrowtooth flounder Gulf of Alaska","USA","US Alaska","Gulf of Alaska",57.1116957510793,-151.365036251316,331532.639628299,"Arrowtooth flounder","Atheresthes stomias",1961,2010,50,"no",0,Inf
"AFSC-NROCKGA-1959-2010-STACHURA","NROCKGA","Northern rockfish Gulf of Alaska","USA","US Alaska","Gulf of Alaska",56.4881243317215,-154.683734976033,151655.753382967,"Northern rockfish","Sebastes polyspinis",1961,2010,50,"no",0,Inf
"AFSC-POPERCHGA-1959-2010-STACHURA","POPERCHGA","Pacific ocean perch Gulf of Alaska","USA","US Alaska","Gulf of Alaska",56.7316266711704,-153.585989368525,171582.98446783,"Pacific ocean perch","Sebastes alutus",1961,2010,50,"no",0,Inf
"CSIRO-BIGHTREDSE-1958-2007-FULTON","BIGHTREDSE","Bight redfish Southeast Australia","Australia","Australia","Southeast Australia",-36.8655773599365,136.956047294523,527328.431631896,"Bight redfish","Centroberyx gerrardi",1958,2007,50,"no",0,Inf
"NIWA-PAUANPAU5A-1965-2014-FU","PAUANPAU5A","Black Foot Paua NZ North PAUA5A","New Zealand","New Zealand","NZ Area North PAUA 5A",-44.8400644281485,167.291226642469,3233.6174663829,"black foot paua","Haliotis iris",1965,2014,50,"no",0,Inf
"NIWA-PAUASPAU5A-1965-2014-FU","PAUASPAU5A","Black Foot Paua NZ South PAUA5A","New Zealand","New Zealand","NZ Area South PAUA 5A",-45.9643772338982,166.737536380887,4054.93454970428,"black foot paua","Haliotis iris",1965,2014,50,"no",0,Inf
"PFMC-CABEZNCAL-1930-2009-CHING","CABEZNCAL","Cabezon Northern California","USA","US West Coast","Northern California",39.1651993998497,-124.731790436169,163996.24774737,"Cabezon","Scorpaenichthys marmoratus",1960,2009,50,"no",0,Inf
"PFMC-CABEZSCAL-1930-2009-CHING","CABEZSCAL","Cabezon Southern California","USA","US West Coast","Southern California",33.0720325333246,-119.456713828192,91849.8244958058,"Cabezon","Scorpaenichthys marmoratus",1960,2009,50,"no",0,Inf
"SEFSC-GAGGM-1963-2012-HIVELY","GAGGM","Gag Gulf of Mexico","USA","US Southeast and Gulf","Gulf of Mexico",28.0830999848324,-88.3813912456703,340141.855909181,"Gag","Mycteroperca microlepis",1963,2012,50,"yes",8,1975
"SEFSC-TILESATLC-1961-2011-HIVELY","TILESATLC","Tilefish Southern Atlantic coast","USA","US Southeast and Gulf","Southern Atlantic coast",31.1877602345803,-78.3029264602483,335331.056542966,"Tilefish","Lopholatilus chamaeleonticeps",1962,2011,50,"no",0,Inf
"VNIRO-WPOLLNSO-1963-2012-CHING","WPOLLNSO","Walleye pollock Northern Sea of Okhotsk","Russia","Russia Japan","Northern Sea of Okhotsk",56.0691141374089,146.625141936681,854633.948967614,"Walleye pollock","Theragra chalcogramma",1963,2012,50,"no",0,Inf
"DFO-PORSHARATL-1960-2014-OSGOOD","PORSHARATL","Porbeagle shark Atlantic Ocean","Canada","Canada East Coast","Canadian Atlantic Ocean",44.1990332658018,-59.0071080694298,1628857.57742568,"Porbeagle shark","Lamna nasus",1961,2009,49,"no",0,Inf
"NEFSC-WHAKEGBGOM-1962-2011-HIVELY","WHAKEGBGOM","White hake Georges Bank / Gulf of Maine","USA","US East Coast","Gulf of Maine / Georges Bank",42.8879300974102,-68.9209990938618,85828.6545736726,"White hake","Urophycis tenuis",1963,2011,49,"no",0,Inf
"NWFSC-LSTHORNHPCOAST-1964-2012-HIVELY","LSTHORNHPCOAST","Longspine thornyhead Pacific Coast","USA","US West Coast","Pacific Coast",33.0720325333246,-119.456713828192,91849.8244958058,"Longspine thornyhead","Sebastolobus altivelis",1964,2012,49,"no",0,Inf
"NZMFishSHELLFISHWG-PAUAPAU5B-1965-2013-FU","PAUAPAU5B","New Zealand abalone species New Zealand Area PAU 5B","New Zealand","New Zealand","New Zealand Area PAU 5B (Stewart Island)",-46.9836808590185,167.898286908047,4685.55494189383,"New Zealand abalone species","Haliotis iris",1965,2013,49,"no",0,Inf
"NZMFishSHELLFISHWG-PAUAPAU5D-1965-2012-FU","PAUAPAU5D","New Zealand abalone species New Zealand Area PAU 5D","New Zealand","New Zealand","New Zealand Area PAU 5D (Otago)",-46.1916267460831,169.698428401506,7591.8823052064,"New Zealand abalone species","Haliotis iris",1965,2012,48,"no",0,Inf
"SEFSC-GTRIGGM-1962-2010-HIVELY","GTRIGGM","Gray triggerfish Gulf of Mexico","USA","US Southeast and Gulf","Gulf of Mexico",28.0830999848324,-88.3813912456703,340141.855909181,"Gray triggerfish","Balistes capriscus",1963,2010,48,"no",0,Inf
"AFSC-YSOLEBSAI-1949-2010-STACHURA","YSOLEBSAI","Yellowfin sole Bering Sea and Aleutian Islands","USA","US Alaska","Bering Sea and Aleutian Islands",58.3824157596369,-166.278452917282,372364.200183539,"Yellowfin sole","Limanda aspera",1964,2010,47,"yes",3,1972
"DFO-PAC-PCODWCVANI-1956-2002-COLLIE","PCODWCVANI","Pacific cod West Coast of Vancouver Island","Canada","Canada West Coast","West Coast of Vancouver Island",49.0161576350977,-129.933625394439,178610.899749574,"Pacific cod","Gadus macrocephalus",1956,2002,47,"no",0,Inf
"ICCAT-ALBAMED-1956-2011-CHING","ALBAMED","Albacore tuna Mediterranean","multinational","Mediterranean-Black Sea","Mediterranean Sea",38.1524680121356,19.6236523444499,2996793.21237004,"albacore tuna","Thunnus alalunga",1965,2011,47,"no",0,Inf
"IMARPE-PANCHPERUNC-1959-2008-HIVELY","PANCHPERUNC","Peruvian anchoveta North-Central Peru","Peru","South America","North-Central Peruvian coast",-10.7000626817091,-79.1874065031613,348063.244032082,"Peruvian anchoveta","Engraulis ringens",1962,2008,47,"no",0,Inf
"ISC-ALBANPAC-1950-2012-PONS","ALBANPAC","Albacore tuna North Pacific","Multinational","US West Coast","North Pacific Ocean",24.746313911019,-145.283358386685,59775902.6070429,"Albacore tuna","Thunnus alalunga",1966,2012,47,"no",0,Inf
"NEFSC-HERRNWATLC-1964-2011-HIVELY","HERRNWATLC","Atlantic herring Northwestern Atlantic Coast","USA","US East Coast","Northwestern Atlantic Coast",41.0710788790715,-70.8992109892084,171027.522985361,"Herring","Clupea harengus",1965,2011,47,"no",0,Inf
"NIWA-NZLINGLIN3-4-1968-2014-FU","NZLINGLIN3-4","New Zealand ling New Zealand Areas LIN 3 and 4","New Zealand","New Zealand","New Zealand Areas LIN 3 and 4",-44.0904225697957,-175.697578653064,558280.051111566,"Ling","Genypterus blacodes",1968,2014,47,"no",0,Inf
"NIWA-NZLINGLIN5-6-1968-2014-FU","NZLINGLIN5-6","New Zealand ling New Zealand Areas LIN 5 and 6","New Zealand","New Zealand","New Zealand Areas LIN 5 and 6",-50.3030125815639,168.248439321943,980299.511670519,"Ling","Genypterus blacodes",1968,2014,47,"no",0,Inf
"DFO-PAC-SABLEFPCAN-1913-2010-HIVELY","SABLEFPCAN","Sablefish Pacific Coast of Canada","Canada","Canada West Coast","Pacific Coast of Canada",50.9121246276172,-131.132951267607,453060.855989601,"Sablefish","Anoplopoma fimbria",1965,2010,46,"no",0,Inf
"NIWA-HOKIENZ-1970-2015-FU","HOKIENZ","Hoki Eastern New Zealand","New Zealand","New Zealand","Eastern New Zealand",-45.6977351510341,176.093778349101,1380426.4865452,"Hoki","Macruronus novaezelandiae",1970,2015,46,"no",0,Inf
"NIWA-HOKIWNZ-1970-2015-FU","HOKIWNZ","Hoki Western New Zealand","New Zealand","New Zealand","Western New Zealand",-44.0221391661647,168.576443229593,1543883.33438057,"Hoki","Macruronus novaezelandiae",1970,2015,46,"no",0,Inf
"NIWA-SMOOTHOREOWECR-1965-2009-CORDUE","SMOOTHOREOWECR","Smooth oreo West end of Chatham Rise","New Zealand","New Zealand","West end of Chatham Rise",-44.2341488940611,173.912333600008,139670.851669235,"Smooth oreo","Pseudocyttus maculatus",1965,2009,45,"no",0,Inf
"NZMFishMIDDEPTHSWG-NZLINGLIN7WC-1968-2012-FU","NZLINGLIN7WC","New Zealand ling New Zealand Area LIN 7WC - WCSI","New Zealand","New Zealand","New Zealand Areas LIN 7WC-WCSI",-41.4428726255274,168.517220608054,331349.706665884,"Ling","Genypterus blacodes",1968,2012,45,"no",0,Inf
"NIWA-GSTRGZRSTA7-1964-2007-CORDUE","GSTRGZRSTA7","Giant stargazer NZ Area STA7","New Zealand","New Zealand","NZ Area STA7",-41.5512034954411,168.669628975536,334089.318664298,"Giant stargazer","Kathetostoma giganteum",1964,2007,44,"no",0,Inf
"SEFSC-GAGSATLC-1962-2005-JENSEN","GAGSATLC","Gag Southern Atlantic coast","USA","US Southeast and Gulf","Southern Atlantic coast",31.1877602345803,-78.3029264602483,335331.056542966,"Gag","Mycteroperca microlepis",1962,2005,44,"no",0,Inf
"ICCAT-ATBTUNAWATL-1950-2015-PONS","ATBTUNAWATL","Bluefin tuna Western Atlantic","multinational","Atlantic Ocean","Western Atlantic",-11.7471978961464,-51.920626370172,43513242.43717,"Atlantic bluefin tuna","Thunnus thynnus",1970,2012,43,"no",0,Inf
"MARAM-CHSQUIDSA-1971-2013-GLAZER","CHSQUIDSA","Cape Hope squid South Africa","South Africa","South Africa","South Africa",-34.6554583175687,19.2685633477411,609628.82080682,"Cape Hope squid","Loligo reynaudii",1971,2013,43,"no",0,Inf
"NZMFishMIDDEPTHSWG-NZLINGLIN72-1968-2010-FU","NZLINGLIN72","New Zealand ling New Zealand Area LIN 72","New Zealand","New Zealand","New Zealand Areas LIN 72",-41.6769452374217,174.630768571682,9762.16426350523,"Ling","Genypterus blacodes",1968,2010,43,"no",0,Inf
"CSIRO-GEMFISHSE-1966-2007-FULTON","GEMFISHSE","common gemfish Southeast Australia","Australia","Australia","Southeast Australia",-35.304121585098,133.843120354193,2815653.6284756,"common gemfish","Rexea solandri",1966,2007,42,"yes",8,1999
"NEFSC-TILEMATLC-1915-2012-HIVELY","TILEMATLC","Tilefish Mid-Atlantic Coast","USA","US East Coast","Mid-Atlantic Coast",39.7116410037632,-70.583919444216,16175.241168698,"Tilefish","Lopholatilus chamaeleonticeps",1971,2012,42,"no",0,Inf
"ISC-BMARLINPAC-1952-2011-PONS","BMARLINPAC","Blue marlin Pacific Ocean","Multinational","Pacific Ocean","Pacific Ocean",-5.15857173084969,-132.921796983369,80815018.1007028,"blue marlin","Makaira nigricans",1971,2011,41,"no",0,Inf
"NIWA-SOUTHHAKESA-1974-2014-FU","SOUTHHAKESA","Southern hake Sub-Antarctic","New Zealand","New Zealand","Sub-Antarctic",-49.9034034447585,169.82645634039,1232992.22501362,"Southern hake","Merluccius australis",1974,2014,41,"no",0,Inf
"SWFSC-GOPHERSPCOAST-1965-2005-STANTON","GOPHERSPCOAST","Gopher rockfish Southern Pacific Coast","USA","US West Coast","Southern Pacific Coast",39.1651993998497,-124.731790436169,163996.24774737,"Gopher rockfish","Sebastes carnatus",1965,2005,41,"no",0,Inf
"CSIRO-NZLINGESE-1968-2007-FULTON","NZLINGESE","New Zealand ling Eastern half of Southeast Australia","Australia","Australia","Southeast Australia",-39.2639535353221,148.504164944276,109569.780594124,"Ling","Genypterus blacodes",1968,2007,40,"no",0,Inf
"CSIRO-NZLINGWSE-1968-2007-FULTON","NZLINGWSE","New Zealand ling Western half of Southeast Australia","Australia","Australia","Western half of Southeast Australia",-35.4186277782849,133.024812788515,484952.949679374,"Ling","Genypterus blacodes",1968,2007,40,"no",0,Inf
"NEFSC-BSBASSMATLC-1968-2007-SHEPHERD","BSBASSMATLC","Black sea bass Mid-Atlantic Coast","USA","US East Coast","Mid-Atlantic Coast",38.6308262299431,-73.8954052282482,116236.195501271,"Black sea bass","Centropristis striata",1968,2007,40,"no",0,Inf
"NEFSC-POLL5YZ-1960-2009-CHING","POLL5YZ","Pollock NAFO-5YZ","USA","US East Coast","Gulf of Maine / Georges Bank",42.6791696878005,-68.8464584347551,80540.8395350834,"Pollock","Pollachius virens",1970,2009,40,"no",0,Inf
"NIWA-SOUTHHAKEWCSI-1973-2012-FU","SOUTHHAKEWCSI","Southern hake West Coast South Island","New Zealand","New Zealand","West Coast South Island",-41.6049941383665,168.342762988616,314254.659470368,"Southern hake","Merluccius australis",1973,2012,40,"no",0,Inf
"SEFSC-RPORGYSATLC-1972-2012-HIVELY","RPORGYSATLC","Red porgy Southern Atlantic coast","USA","US Southeast and Gulf","Southern Atlantic coast",31.1877602345803,-78.3029264602483,335331.056542966,"Red porgy","Pagrus pagrus",1972,2011,40,"no",0,Inf
"SEFSC-SNOWGROUPSATLC-1974-2013-HIVELY","SNOWGROUPSATLC","Snowy grouper Southern Atlantic coast","USA","US Southeast and Gulf","Southern Atlantic coast",31.1877602345803,-78.3029264602483,335331.056542966,"Snowy grouper","Epinephelus niveatus",1974,2013,40,"no",0,Inf
"SPC-SKJCWPAC-1950-2012-PONS","SKJCWPAC","Skipjack tuna Central Western Pacific","multinational","Pacific Ocean","Central Western Pacific Ocean",13.2162391781975,148.809385341556,55449181.5378947,"Skipjack tuna","Katsuwonus pelamis",1972,2011,40,"no",0,Inf
"NEFSC-SCALL5ZMAB-1964-2013-HIVELY","SCALL5ZMAB","Sea scallop Georges Bank and Mid-Atlantic Bight","USA","US East Coast","Georges Bank and Mid-Atlantic Bight",41.2549621419923,-69.1690155292971,83516.4745063944,"Sea scallop","Placopecten magellanicus",1975,2013,39,"yes",9,1981
"NEFSC-YELLSNEMATL-1935-2011-HIVELY","YELLSNEMATL","Yellowtail Flounder Southern New England-Mid Atlantic","USA","US East Coast","Southern New England /Mid Atlantic",39.8879104812312,-72.4223479654383,76642.6735629275,"Yellowtail Flounder","Limanda ferruginea",1973,2011,39,"no",0,Inf
"NIWA-SOUTHHAKECR-1974-2012-FU","SOUTHHAKECR","Southern hake Chatham Rise","New Zealand","New Zealand","Chatham Rise",-43.2204717485023,-176.056883743201,800077.841833242,"Southern hake","Merluccius australis",1974,2012,39,"no",0,Inf
"NWFSC-YTROCKNPCOAST-1967-2005-STANTON","YTROCKNPCOAST","Yellowtail rockfish Northern Pacific Coast","USA","US West Coast","Northern Pacific Coast",44.2846266095231,-126.341113762595,312364.716626321,"Yellowtail rockfish","Sebastes flavidus",1967,2005,39,"no",0,Inf
"VNIRO-WPOLLWBS-1970-2008-CHING","WPOLLWBS","Walleye pollock Western Bering Sea","Russia","Russia Japan","Western Bering Sea",59.2233460102007,174.664292747933,477651.29156373,"Walleye pollock","Theragra chalcogramma",1970,2008,39,"no",0,Inf
"AFSC-NRSOLEEBSAI-1975-2012-HIVELY","NRSOLEEBSAI","Northern rock sole Eastern Bering Sea and Aleutian Islands","USA","US Alaska","Eastern Bering Sea and Aleutian Islands",57.8849056579222,-168.074686929032,556506.779445143,"Northern rock sole","Lepidopsetta polyxystra",1975,2012,38,"no",0,Inf
"AFSC-PCODGA-1977-2014-HIVELY","PCODGA","Pacific cod Gulf of Alaska","USA","US Alaska","Gulf of Alaska",57.1152218108102,-154.178373540114,267058.516566846,"Pacific cod","Gadus macrocephalus",1977,2014,38,"no",0,Inf
"AFSC-REYEROCKBSAI-1974-2015-HIVELY","REYEROCKBSAI","Rougheye rockfish Bering Sea and Aleutian Islands","USA","US Alaska","Bering Sea and Aleutian Islands",53.637272625994,-170.516819612881,186778.164321901,"Rougheye rockfish","Sebastes aleutianus",1977,2014,38,"no",0,Inf
"DFO-MAR-CUSK4X-1970-2007-RICARD","CUSK4X","Cusk NAFO 4X","Canada","Canada East Coast","Western Scotian Shelf",42.2023391195074,-64.9852404225388,155224.96173621,"Cusk","Brosme brosme",1970,2007,38,"no",0,Inf
"WGBFAS-HERR30-1972-2011-NEUBAUER","HERR30","Herring ICES 30","multinational","European Union","Bothnian Sea",61.903174841927,19.5543280469228,64404.7358291301,"Herring","Clupea harengus",1973,2010,38,"no",0,Inf
"AFSC-PCODBSAI-1964-2013-CHING","PCODBSAI","Pacific cod Bering Sea and Aleutian Islands","USA","US Alaska","Bering Sea and Aleutian Islands",58.2854874530044,-168.952473163881,668751.437783167,"Pacific cod","Gadus macrocephalus",1977,2013,37,"no",0,Inf
"AFSC-WPOLLGA-1970-2014-HIVELY","WPOLLGA","Walleye pollock Gulf of Alaska","USA","US Alaska","Gulf of Alaska",57.0815139886092,-153.677499601126,295520.550437548,"Walleye pollock","Theragra chalcogramma",1977,2013,37,"no",0,Inf
"IATTC-BIGEYEEPAC-1954-2012-PONS","BIGEYEEPAC","Bigeye tuna Eastern Pacific","multinational","Pacific Ocean","Eastern Pacific",-8.68294777966568,-116.63315180093,37218632.6954846,"Bigeye tuna","Thunnus obesus",1976,2012,37,"no",0,Inf
"IATTC-YFINEPAC-1950-2012-PONS","YFINEPAC","Yellowfin tuna Eastern Pacific","multinational","Pacific Ocean","Northeast Pacific",-8.68294777966568,-116.63315180093,37218632.6954846,"Yellowfin tuna","Thunnus albacares",1976,2012,37,"no",0,Inf
"NWFSC-CABEZORECOAST-1973-2009-STACHURA","CABEZORECOAST","Cabezon Oregon Coast","USA","US West Coast","Oregon Coast",44.1538666105004,-126.536438362503,181160.332288858,"Cabezon","Scorpaenichthys marmoratus",1973,2009,37,"no",0,Inf
"NZMFishMIDDEPTHSWG-SBWHITACIR-1977-2013-FU","SBWHITACIR","Southern blue whiting Campbell Island Rise","New Zealand","New Zealand","New Zealand - Campbell Island Rise",-52.8638392690762,171.65749932102,249261.84738419,"Southern blue whiting","Micromesistius australis",1977,2013,37,"no",0,Inf
"AFSC-ALPLAICBSAI-1972-2010-STACHURA","ALPLAICBSAI","Alaska plaice Bering Sea and Aleutian Islands","USA","US Alaska","Bering Sea and Aleutian Islands",58.7326021190629,-167.823361149323,424076.229128217,"Alaska plaice","Pleuronectes quadrituberculatus",1975,2010,36,"no",0,Inf
"AFSC-WPOLLAI-1976-2013-CHING","WPOLLAI","Walleye pollock Aleutian Islands","USA","US Alaska","Aleutian Islands",53.0596804564962,-172.576082770487,280457.416198594,"Walleye pollock","Theragra chalcogramma",1978,2013,36,"no",0,Inf
"CSIRO-PTOOTHFISHMI-1975-2010-FAY","PTOOTHFISHMI","Patagonian toothfish Macquarie Island","Australia","Australia","Macquarie Island",-54.8779900957571,158.650029490197,474468.227231023,"Patagonian toothfish","Dissostichus eleginoides",1975,2010,36,"no",0,Inf
"ISC-STMARLINWCNPAC-1951-2010-CHING","STMARLINWCNPAC","Striped marlin Western and Central North Pacific","Multinational","Pacific Ocean","Western and Central North Pacific",23.1255055026214,150.718987316856,45383171.6204222,"striped marlin","Kajikia audax",1975,2010,36,"no",0,Inf
"NIWA-BLACKOREOPR-1974-2009-CORDUE","BLACKOREOPR","Black Oreo Pukaki Rise","New Zealand","New Zealand","Pukaki Rise",-49.5780122575585,174.156769500656,214576.246519743,"Black oreo","Allocyttus niger",1974,2009,36,"no",0,Inf
"SWFSC-STFLOUNNPCOAST-1970-2005-STANTON","STFLOUNNPCOAST","Starry flounder Northern Pacific Coast","USA","US West Coast","Northern Pacific Coast",45.0227270720632,-126.306278943629,247654.500668066,"Starry flounder","Platichthys stellatus",1970,2005,36,"no",0,Inf
"SWFSC-STFLOUNSPCOAST-1970-2005-STANTON","STFLOUNSPCOAST","Starry flounder Southern Pacific Coast","USA","US West Coast","Southern Pacific Coast",39.1651993998497,-124.731790436169,163996.24774737,"Starry flounder","Platichthys stellatus",1970,2005,36,"no",0,Inf
"AFSC-ARFLOUNDBSAI-1970-2010-STACHURA","ARFLOUNDBSAI","Arrowtooth flounder Bering Sea and Aleutian Islands","USA","US Alaska","Bering Sea and Aleutian Islands",56.7457312216551,-169.644500266549,372021.168304825,"Arrowtooth flounder","Reinhardtius stomias",1976,2010,35,"no",0,Inf
"AFSC-ATKABSAI-1976-2011-STACHURA","ATKABSAI","Atka mackerel Bering Sea and Aleutian Islands","USA","US Alaska","Bering Sea and Aleutian Islands",54.5165610258829,-166.539714337993,46313.7890018696,"Atka mackerel","Pleurogrammus monopterygius",1977,2011,35,"no",0,Inf
"AFSC-NROCKBSAI-1974-2011-STACHURA","NROCKBSAI","Northern rockfish Bering Sea and Aleutian Islands","USA","US Alaska","Bering Sea and Aleutian Islands",54.2327678032396,-165.963455267706,141126.601250719,"Northern rockfish","Sebastes polyspinis",1977,2011,35,"no",0,Inf
"AFSC-PERCHEBSAI-1960-2011-STACHURA","PERCHEBSAI","Pacific Ocean perch Eastern Bering Sea and Aleutian Islands","USA","US Alaska","Eastern Bering Sea and Aleutian Islands",53.3893574620209,-168.604109962129,143912.189612889,"Pacific Ocean perch","Sebastes alutus",1977,2011,35,"no",0,Inf
"AFSC-SNOWCRABBS-1978-2013-HIVELY","SNOWCRABBS","Snow crab Bering Sea","USA","US Alaska","Bering Sea",59.1686284086047,-171.457276287664,291186.09359447,"Snow crab","Chionoecetes opilio",1978,2012,35,"no",0,Inf
"IATTC-STMARLINNEPAC-1954-2009-BRANCH","STMARLINNEPAC","Striped marlin Northeast Pacific","multinational","Atlantic Ocean","Northeast Pacific",14.4879771040319,-119.5800285249,22017914.5235855,"Striped marlin","Kajikia audax",1975,2009,35,"no",0,Inf
"NIWA-SMOOTHOREOSLD-1973-2007-CORDUE","SMOOTHOREOSLD","Smooth Oreo Southland","New Zealand","New Zealand","Southland",-46.7066013776629,170.780992260417,40756.5739427153,"Smooth oreo","Pseudocyttus maculatus",1973,2007,35,"no",0,Inf
"NZMFishDEEPWATER-BLACKOREOWECR-1973-2007-JENSEN","BLACKOREOWECR","Black oreo West end of Chatham Rise","New Zealand","New Zealand","West end of Chatham Rise",-44.2341488940611,173.912333600008,139670.851669235,"Black oreo","Allocyttus niger",1973,2007,35,"no",0,Inf
"SEFSC-YEGROUPGM-1975-2009-HIVELY","YEGROUPGM","Yellowedge grouper Gulf of Mexico","USA","US Southeast and Gulf","Gulf of Mexico",28.0830999848324,-88.3813912456703,340141.968488144,"Yellowedge grouper","Epinephelus flavolimbatus",1975,2009,35,"no",0,Inf
"WGBFAS-HERRRIGA-1976-2011-NEUBAUER","HERRRIGA","Herring ICES 28","multinational","European Union","Gulf of Riga East of Gotland",57.5804025717461,21.081897229631,55529.1655724554,"Herring","Clupea harengus",1977,2011,35,"no",0,Inf
"AFSC-FLSOLEBSAI-1974-2010-STACHURA","FLSOLEBSAI","Flathead sole Bering Sea and Aleutian Islands","USA","US Alaska","Bering Sea and Aleutian Islands",58.2204366321824,-169.696396506675,522367.829153197,"Flathead sole","Hippoglossoides elassodon",1977,2010,34,"yes",5,1977
"NEFSC-CODGB-1976-2011-CHING","CODGB","Atlantic cod Georges Bank","USA","US East Coast","Georges Bank",41.4040066000161,-68.1908474501866,45986.5057478135,"Atlantic cod","Gadus morhua",1978,2011,34,"yes",19,1993
"NEFSC-HAD5Y-1964-2011-CHING","HAD5Y","Haddock NAFO-5Y","USA","US East Coast","Gulf of Maine",42.6518084453028,-69.4344538786656,36232.9845722584,"Haddock","Melanogrammus aeglefinus",1977,2010,34,"yes",6,1988
"NIWA-SMOOTHOREOEPR-1973-2006-CORDUE","SMOOTHOREOEPR","Smooth Oreo East Pukaki Rise","New Zealand","New Zealand","East Pukaki Rise",-49.5780122575585,174.156769500656,214576.246519743,"Smooth oreo","Pseudocyttus maculatus",1973,2006,34,"no",0,Inf
"SEFSC-LISQUIDATLC-1963-2009-HIVELY","LISQUIDATLC","Longfin inshore squid Atlantic Coast","USA","US Southeast and Gulf","Atlantic Coast",39.7040436179978,-72.1307824605165,156174.447056279,"Longfin inshore squid","Loligo pealeii",1976,2009,34,"no",0,Inf
"SEFSC-RGROUPSATL-1976-2009-HIVELY","RGROUPSATL","Red grouper South Atlantic","USA","US Southeast and Gulf","South Atlantic",31.1877602345803,-78.3029264602483,335331.056542966,"Red grouper","Epinephelus morio",1976,2009,34,"no",0,Inf
"AFSC-DUSROCKGA-1973-2010-STACHURA","DUSROCKGA","Dusky rockfish Gulf of Alaska","USA","US Alaska","Gulf of Alaska",56.5412981386434,-154.566228332755,164872.210523529,"Dusky rockfish","Sebastes variabilis",1977,2009,33,"no",0,Inf
"AFSC-REYEROCKGA-1974-2010-STACHURA","REYEROCKGA","Rougheye rockfish Gulf of Alaska","USA","US Alaska","Gulf of Alaska",57.0688420916742,-152.26103460171,196756.122810058,"Rougheye rockfish","Sebastes aleutianus",1977,2009,33,"no",0,Inf
"AFSC-RKCRABNS-1976-2008-JENSEN","RKCRABNS","Red king crab Norton Sound","USA","US Alaska","Norton Sound",64.0813648905569,-165.095956738312,11342.6684596874,"Red king crab","Paralithodes camtschaticus",1976,2008,33,"no",0,Inf
"NEFSC-WINDOWGOMGB-1975-2007-HENDRICKSON","WINDOWGOMGB","Windowpane flounder - Gulf of Maine / Georges Bank","USA","US East Coast","Gulf of Maine / Georges Bank",41.4052060721384,-68.3376438400911,41064.3897833033,"Windowpane","Scophthalmus aquosus",1975,2007,33,"yes",3,1991
"NEFSC-WINDOWSNEMATL-1975-2007-HENDRICKSON","WINDOWSNEMATL","Windowpane Southern New England-Mid Atlantic","USA","US East Coast","Southern New England /Mid Atlantic",39.4021913324164,-73.2118812242511,94506.8381025985,"Windowpane","Scophthalmus aquosus",1975,2007,33,"no",0,Inf
"SEFSC-BSBASSSATL-1950-2010-HIVELY","BSBASSSATL","Black sea bass South Atlantic","USA","US Southeast and Gulf","South Atlantic",31.1877602345803,-78.3029264602483,335331.056542966,"Black Sea Bass","Centropristis striata",1978,2010,33,"no",0,Inf
"WGCSE-CODVIa-1981-2012-CHING","CODVIa","Atlantic cod West of Scotland","multinational","European Union","West of Scotland",57.5224191483904,-8.51394966309718,235806.533923361,"Atlantic cod","Gadus morhua",1981,2012,32,"yes",9,2004
"AFSC-BKINGCRABSMI-1960-2008-JENSEN","BKINGCRABSMI","Blue king crab Saint Matthews Island","USA","US Alaska","Saint Matthews Island",59.9797581966548,-173.941291911465,38011.1601610049,"Blue king crab","Paralithodes platypus",1978,2008,31,"no",0,Inf
"NEFSC-AMPL5YZ-1960-2010-HIVELY","AMPL5YZ","American Plaice NAFO-5YZ","USA","US East Coast","Gulf of Maine / Georges Bank",42.8817701992424,-69.0328266707614,88691.3624639558,"American Plaice","Hippoglossoides platessoides",1980,2010,31,"no",0,Inf
"NEFSC-SFLOUNMATLC-1940-2012-HIVELY","SFLOUNMATLC","Summer flounder Mid-Atlantic Coast","USA","US East Coast","Mid-Atlantic Coast",36.5075773823055,-75.4839574368189,282937.522624405,"Summer flounder","Paralichthys dentatus",1982,2012,31,"yes",5,1988
"ASMFC-ATLCROAKMATLC-1973-2002-STANTON","ATLCROAKMATLC","Atlantic croaker Mid-Atlantic Coast","USA","US East Coast","Mid-Atlantic Coast",37.8265125103676,-72.1570078907392,445424.588086568,"Atlantic croaker","Micropogonias undulatus",1973,2002,30,"no",0,Inf
"CSIRO-DEEPFLATHEADSE-1978-2007-FULTON","DEEPFLATHEADSE","Deepwater flathead Southeast Australia","Australia","Australia","Southeast Australia",-35.0185488424619,133.236100131752,205937.03249856,"Deepwater flathead","Platycephalus conatus",1978,2007,30,"no",0,Inf
"CSIRO-OROUGHYSE-1978-2007-FULTON","OROUGHYSE","Orange roughy Southeast Australia","Australia","Australia","Southeast Australia",-34.3407256235828,131.636054421769,97911.0391174729,"Orange roughy","Hoplostethus atlanticus",1978,2007,30,"no",0,Inf
"NEFSC-CODGOM-1981-2011-CHING","CODGOM","Atlantic cod Gulf of Maine","USA","US East Coast","Gulf of Maine",43.2869677851352,-69.1452389394204,43902.4392272694,"Atlantic cod","Gadus morhua",1982,2011,30,"yes",16,1992
"NEFSC-WINFLOUNSNEMATL-1980-2010-HIVELY","WINFLOUNSNEMATL","Winter Flounder Southern New England-Mid Atlantic","USA","US East Coast","Southern New England /Mid Atlantic",40.6950399317921,-71.6800407729255,45553.302201296,"Winter Flounder","Pseudopleuronectes americanus",1981,2010,30,"yes",23,1987
"SEFSC-BTIPSHARGM-1981-2010-HIVELY","BTIPSHARGM","Blacktip shark Gulf of Mexico","USA","US Southeast and Gulf","Gulf of Mexico",28.2500149299475,-88.1620496906609,158726.064372581,"Blacktip shark","Carcharhinus limbatus",1981,2010,30,"no",0,Inf
"SEFSC-SBARSHARATL-1975-2004-FAUCONNET","SBARSHARATL","Sandbar shark Atlantic","USA","US Southeast and Gulf","Atlantic",35.1403856286023,-76.3813073047661,402636.558435435,"Sandbar shark","Carcharhinus plumbeus",1975,2004,30,"no",0,Inf
"AFSC-RKCRABPI-1981-2009-JENSEN","RKCRABPI","Red king crab Pribilof Islands","USA","US Alaska","Pribilof Islands",57.210750676096,-169.967703442496,5822.6471847075,"Red king crab","Paralithodes camtschaticus",1981,2009,29,"yes",6,1984
"CSIRO-SILVERFISHSE-1978-2006-FULTON","SILVERFISHSE","Silverfish Southeast Australia","Australia","Australia","Southeast Australia",-39.8019587527136,145.267041641997,247255.935018623,"Silverfish","Seriolella punctata",1978,2006,29,"no",0,Inf
"NEFSC-WINFLOUN5Z-1964-2011-HIVELY","WINFLOUN5Z","Winter Flounder NAFO-5Z","USA","US East Coast","Georges Bank",41.432505435115,-68.3051173707312,19498.1335963246,"Winter Flounder","Pseudopleuronectes americanus",1982,2010,29,"no",0,Inf
"AFSC-BKINGCRABPI-1960-2008-JENSEN","BKINGCRABPI","Blue king crab Pribilof Islands","USA","US Alaska","Pribilof Islands",57.5023457212964,-170.025562422668,35247.8469083943,"Blue king crab","Paralithodes platypus",1981,2008,28,"yes",7,1989
"NEFSC-SURFMATLC-1965-2008-JACOBSON","SURFMATLC","Atlantic surfclam Mid-Atlantic Coast","USA","US East Coast","Mid-Atlantic Coast",38.4152819262747,-74.4434743116208,61298.7944656188,"Atlantic surfclam","Spisula solidissima",1981,2008,28,"no",0,Inf
"NEFSC-WEAKFISHATLC-1981-2008-STANTON","WEAKFISHATLC","Weakfish Atlantic Coast","USA","US East Coast","Atlantic Coast",35.9089538107213,-73.8529557703823,910227.994009697,"Weakfish","Cynoscion regalis",1981,2008,28,"yes",2,2007
"NIWA-SCMPBP-1985-2012-FU","SCMPBP","Scampi Bay of Plenty","New Zealand","New Zealand","Bay of Plenty",-34.3891842427581,175.620441792915,239600.935298105,"Scampi","Metanephrops challengeri",1985,2012,28,"no",0,Inf
"NIWA-SCMPWHB-1985-2012-FU","SCMPWHB","Scampi Wairapa/Hawke Bay","New Zealand","New Zealand","Wairarapa/Hawke Bay",-39.479202659996,-177.72802048824,413934.233699044,"Scampi","Metanephrops challengeri",1985,2012,28,"no",0,Inf
"AFSC-FLSOLEGA-1978-2010-STACHURA","FLSOLEGA","Flathead sole Gulf of Alaska","USA","US Alaska","Gulf of Alaska",57.1640545125807,-153.65212444525,255749.87694471,"Flathead sole","Hippoglossoides elassodon",1984,2010,27,"no",0,Inf
"NWFSC-KELPGREENLINGORECOAST-1979-2005-STANTON","KELPGREENLINGORECOAST","Kelp greenling Oregon Coast","USA","US West Coast","Oregon Coast",44.1538666105004,-126.536438362503,181160.332288858,"Kelp greenling","Hexagrammos decagrammus",1979,2005,27,"no",0,Inf
"NZMFishMIDDEPTHSWG-NZLINGLIN6b-1980-2006-JENSEN","NZLINGLIN6b","New Zealand ling New Zealand Area LIN 6b","New Zealand","New Zealand","New Zealand Areas LIN 6b",-48.6992214737785,-177.474693367548,447116.492253637,"Ling","Genypterus blacodes",1980,2006,27,"no",0,Inf
"AFSC-DSOLEGA-1978-2009-STACHURA","DSOLEGA","Dover sole Gulf of Alaska","USA","US Alaska","Gulf of Alaska",57.704670556794,-150.744994032588,214506.257746139,"Dover sole","Microstomus pacificus",1984,2009,26,"no",0,Inf
"ASMFC-LOBSTERGOM-1981-2007-STANTON","LOBSTERGOM","American lobster Gulf of Maine","USA","US East Coast","Gulf of Maine",43.2569393583022,-68.9264745565666,56229.6198332439,"American lobster","Homarus americanus",1982,2007,26,"no",0,Inf
"NEFSC-BLUEFISHATLC-1981-2007-SHEPHERD","BLUEFISHATLC","Bluefish Atlantic Coast","USA","US East Coast","Atlantic Coast",33.7166618095291,-76.1216085979571,634594.146537687,"Bluefish","Pomatomus saltatrix",1982,2007,26,"no",0,Inf
"NEFSC-WITFLOUN5Y-1982-2008-WIGLEY","WITFLOUN5Y","Witch Flounder NAFO-5Y","USA","US East Coast","Gulf of Maine",42.6479402891931,-68.9031695615203,159699.200392995,"Witch Flounder","Glyptocephalus cynoglossus",1982,2007,26,"no",0,Inf
"NIWA-SCMPMB-1989-2014-FU","SCMPMB","Scampi Mernoo Bank","New Zealand","New Zealand","Mernoo Bank",-44.770637177754,175.102673276815,333773.08304038,"Scampi","Metanephrops challengeri",1989,2014,26,"no",0,Inf
"NIWA-SMOOTHOREOBP-1983-2008-CORDUE","SMOOTHOREOBP","Smooth Oreo Bounty Plateau","New Zealand","New Zealand","Bounty Plateau",-47.1610796549156,177.919817671374,148174.212983428,"Smooth oreo","Pseudocyttus maculatus",1983,2008,26,"no",0,Inf
"SEFSC-MUTSNAPSATLCGM-1981-2006-JENSEN","MUTSNAPSATLCGM","Mutton snapper Southern Atlantic coast and Gulf of Mexico","USA","US Southeast and Gulf","Southern Atlantic coast and Gulf of Mexico",29.6555933731313,-83.2186897253918,666508.941871594,"Mutton snapper","Lutjanus analis",1981,2006,26,"no",0,Inf
"AFSC-RKCRABBB-1960-2008-JENSEN","RKCRABBB","Red king crab Bristol Bay","USA","US Alaska","Bristol Bay",56.9465596708925,-162.927699649859,135612.158972561,"Red king crab","Paralithodes camtschaticus",1985,2008,24,"no",0,Inf
"NEFSC-BUTTERGOMCHATT-1965-2012-HIVELY","BUTTERGOMCHATT","Atlantic butterfish Gulf of Maine / Cape Hatteras","USA","US East Coast","Gulf of Maine / Cape Hatteras",39.5654999731305,-72.3390975723611,212171.624500148,"Atlantic butterfish","Peprilus triacanthus",1989,2012,24,"no",0,Inf
"NEFSC-SCUPNWATLC-1960-2007-TERCEIRO","SCUPNWATLC","Scup Atlantic Coast","USA","US East Coast","Northwestern Atlantic Coast",38.8332721778282,-73.4979490676757,141501.131176276,"Scup","Stenotomus chrysops",1984,2007,24,"yes",16,1984
"SEFSC-VSNAPGM-1981-2004-JENSEN","VSNAPGM","Vermilion snapper Gulf of Mexico","USA","US Southeast and Gulf","Gulf of Mexico",28.0830999848324,-88.3813912456703,340141.855909181,"Vermilion snapper","Rhomboplites aurorubens",1981,2004,24,"no",0,Inf
"CSIRO-WAREHOUESE-1984-2006-FULTON","WAREHOUESE","Blue Warehou Eastern half of Southeast Australia","Australia","Australia","Eastern half of Southeast Australia",-38.910395024273,148.677295728507,111402.513685672,"Blue Warehou","Seriolella brama",1984,2006,23,"no",0,Inf
"CSIRO-WAREHOUWSE-1984-2006-FULTON","WAREHOUWSE","Blue Warehou Western half of Southeast Australia","Australia","Australia","Western half of Southeast Australia",-35.8684056411611,137.046286675881,349360.761364972,"Blue Warehou","Seriolella brama",1984,2006,23,"no",0,Inf
"DFO-MAR-SHAKE4VWX-1969-2015-OSGOOD","SHAKE4VWX","Silver hake Scotian Shelf and Bay of Fundy","Canada","Canada East Coast","Scotian Shelf and Bay of Fundy",42.0846617480834,-59.5931134947764,760834.56085816,"Silver hake","Merluccius bilinearis",1993,2015,23,"no",0,Inf
"NEFSC-YELLCCODGOM-1935-2008-LEGAULT","YELLCCODGOM","Yellowtail flounder Cape Cod / Gulf of Maine","USA","US East Coast","Cape Cod / Gulf of Maine",42.4861984652328,-70.4397020554487,14646.6391269359,"Yellowtail flounder","Limanda ferruginea",1985,2007,23,"yes",17,1985
"SEFSC-BLACKGROUPERGMSATL-1986-2008-THORSON","BLACKGROUPERGMSATL","Black Grouper Gulf of Mexico and South Atlantic","USA","US Southeast and Gulf","Gulf of Mexico and South Atlantic",29.6555933731313,-83.2186897253918,666508.941871594,"Black grouper","Mycteroperca bonaci",1986,2008,23,"no",0,Inf
"ICCAT-SWORDMED-1950-2009-CHING","SWORDMED","Swordfish Mediterranean Sea","multinational","Mediterranean-Black Sea","Mediterranean Sea",38.1524680121356,19.6236523444499,2996793.21237004,"Swordfish","Xiphias gladius",1987,2008,22,"no",0,Inf
"INIDEP-PATGRENADIERSARG-1983-2006-Parma","PATGRENADIERSARG","Patagonian grenadier Southern Argentina","Argentina","South America","Southern Argentina",-49.5220292549109,-63.6465168537762,789923.955190198,"Patagonian grenadier","Macruronus magellanicus",1985,2006,22,"no",0,Inf
"FAO-SPNWA-RSARDINWA-1990-2010-CHING","RSARDINWA","Round Sardinella West Africa","multinational","West Africa","West Africa",17.0045719725189,-17.1461393679422,955623.792548845,"Round sardinella","Sardinella aurita",1990,2010,21,"no",0,Inf
"FAO-SPNWA-SARDINWA-1990-2010-CHING","SARDINWA","Sardinella West Africa","multinational","West Africa","West Africa",17.8484463780649,-17.9800560753249,708123.676498228,"Sardinella","Sardinella spp",1990,2010,21,"no",0,Inf
"HAWG-HERR2224IIIa-1991-2011-NEUBAUER","HERR2224IIIa","Herring ICES 22-24-IIIa","multinational","European Union","22-24-IIIa",56.4138871948853,11.1596305515865,98654.907556252,"Herring","Clupea harengus",1991,2010,20,"no",0,Inf
"SEFSC-RGROUPGM-1986-2005-JENSEN","RGROUPGM","Red grouper Gulf of Mexico","USA","US Southeast and Gulf","Gulf of Mexico",28.0830999848324,-88.3813912456703,340141.855909181,"Red grouper","Epinephelus morio",1986,2005,20,"no",0,Inf
"IPHC-PHALNPAC-1888-2014-HIVELY","PHALNPAC","Pacific halibut North Pacific","multinational","US Alaska","North Pacific",50.173057173502,-152.078721190699,7450320.21982006,"Pacific halibut","Hippoglossus stenolepis",1996,2014,19,"no",0,Inf
"MARAM-PTOOTHFISHPEI-1960-2015-Brandao","PTOOTHFISHPEI","Patagonian toothfish South Africa Subantarctic Prince Edward Islands","South Africa","South Africa","South Africa Subantarctic Prince Edward Islands",-46.8329292748873,37.808521474681,474646.332379758,"Patagonian toothfish","Dissostichus eleginoides",1997,2015,19,"no",0,Inf
"SEFSC-GRAMBERGM-1986-2004-JENSEN","GRAMBERGM","Greater amberjack Gulf of Mexico","USA","US Southeast and Gulf","Gulf of Mexico",28.0830999848324,-88.3813912456703,340141.968488144,"Greater amberjack","Seriola dumerili",1986,2004,19,"no",0,Inf
"INIDEP-ARGANCHONARG-1989-2007-Parma","ARGANCHONARG","Argentine anchoita Northern Argentina","Argentina","South America","Northern Argentina",-38.9337304456434,-57.1723971470768,283280.551905514,"Argentine anchoita","Engraulis anchoita",1990,2007,18,"no",0,Inf
"FAO-SPNWA-SARDWAZC-1990-2010-CHING","SARDWAZC","Sardine West Africa Zone C","multinational","West Africa","West Africa Zone C",23.3226208415486,-17.870206988623,224027.573126167,"Sardine","Sardina pilchardus",1995,2010,16,"yes",2,1997
"INIDEP-ARGANCHOSARG-1992-2007-Parma","ARGANCHOSARG","Argentine anchoita Southern Argentina","Argentina","South America","Southern Argentina",-49.5220292549109,-63.6465168537762,789923.955190198,"Argentine anchoita","Engraulis anchoita",1993,2007,15,"no",0,Inf
"CNR-IAMC-SARDMEDGSA16-1998-2011-BANOBI","SARDMEDGSA16","Sardine South of Sicily","multinational","Mediterranean-Black Sea","South of Sicily",36.8724518264376,12.9820868109699,37679.310041157,"Sardine","Sardina pilchardus",1998,2011,14,"no",0,Inf
"CCAMLR-ATOOTHFISHRS-1995-2007-JENSEN","ATOOTHFISHRS","Antarctic toothfish Ross Sea","multinational","Antarctic","Ross Sea",-70.0647908316315,-147.210651547065,5885710.87679544,"Antarctic toothfish","Dissostichus mawsoni",1995,2007,13,"no",0,Inf
"SWFSC-CALSCORPSCAL-1990-2005-STANTON","CALSCORPSCAL","California scorpionfish Southern California","USA","US West Coast","Southern California",33.0720325333246,-119.456713828192,91849.8244958058,"California scorpionfish","Scorpaena guttata",1995,2005,11,"no",0,Inf
"VNIRO-WPOLLNAVAR-1994-2004-JENSEN","WPOLLNAVAR","Walleye Pollock Navarinsky","Russia","Russia Japan","Navarinsky",62.4447521505613,-176.708407870954,126939.413570317,"Walleye pollock","Theragra chalcogramma",1994,2004,11,"no",0,Inf
